start=new Date('2022-07-11T00:00:00.000Z').valueOf();
sats=[{"MEAN_MOTION":"15.06396245","RA_OF_ASC_NODE":"357.5555","MEAN_ELEMENT_THEORY":"SGP4","MEAN_ANOMALY":"287.6072","OBJECT_NAME":"STARLINK-2735","GP_ID":"207873415","REV_AT_EPOCH":"6220","FILE":"3511318","TLE_LINE2":"2 48667  53.0554 357.5555 0001371  72.5067 287.6072 15.06396245 62202","TIME_SYSTEM":"UTC","INCLINATION":"53.0554","COUNTRY_CODE":"US","REF_FRAME":"TEME","ELEMENT_SET_NO":"999","CENTER_NAME":"EARTH","PERIOD":"95.592","SEMIMAJOR_AXIS":"6925.360","OBJECT_TYPE":"PAYLOAD","OBJECT_ID":"2021-044AF","LAUNCH_DATE":"2021-05-26","RCS_SIZE":"LARGE","BSTAR":"-0.00012737000000","CLASSIFICATION_TYPE":"U","EPHEMERIS_TYPE":"0","ARG_OF_PERICENTER":"72.5067","EPOCH":"2022-07-10T19:42:09.927072","DECAY_DATE":null,"NORAD_CAT_ID":"48667","TLE_LINE1":"1 48667U 21044AF  22191.82094823 -.00002178  00000-0 -12737-3 0  9996","SITE":"AFETR","MEAN_MOTION_DDOT":"0.0000000000000","PERIAPSIS":"546.276","ECCENTRICITY":"0.00013710","APOAPSIS":"548.175","MEAN_MOTION_DOT":"-0.00002178"},{"EPOCH":"2022-07-10T19:36:52.551360","ARG_OF_PERICENTER":"90.7751","EPHEMERIS_TYPE":"0","BSTAR":"-0.00019374000000","CLASSIFICATION_TYPE":"U","MEAN_MOTION_DDOT":"0.0000000000000","SITE":"AFETR","NORAD_CAT_ID":"48668","TLE_LINE1":"1 48668U 21044AG  22191.81727490 -.00003166  00000-0 -19374-3 0  9991","DECAY_DATE":null,"ECCENTRICITY":"0.00013330","PERIAPSIS":"546.306","MEAN_MOTION_DOT":"-0.00003166","APOAPSIS":"548.152","MEAN_MOTION":"15.06395010","RA_OF_ASC_NODE":"357.5651","GP_ID":"207849050","OBJECT_NAME":"STARLINK-2738","MEAN_ELEMENT_THEORY":"SGP4","MEAN_ANOMALY":"269.3391","TIME_SYSTEM":"UTC","INCLINATION":"53.0556","COUNTRY_CODE":"US","TLE_LINE2":"2 48668  53.0556 357.5651 0001333  90.7751 269.3391 15.06395010 63102","REV_AT_EPOCH":"6310","FILE":"3511150","LAUNCH_DATE":"2021-05-26","RCS_SIZE":"LARGE","OBJECT_TYPE":"PAYLOAD","OBJECT_ID":"2021-044AG","ELEMENT_SET_NO":"999","PERIOD":"95.592","SEMIMAJOR_AXIS":"6925.364","CENTER_NAME":"EARTH","REF_FRAME":"TEME"},{"REF_FRAME":"TEME","ELEMENT_SET_NO":"999","CENTER_NAME":"EARTH","PERIOD":"95.592","SEMIMAJOR_AXIS":"6925.363","OBJECT_ID":"2021-044AH","OBJECT_TYPE":"PAYLOAD","LAUNCH_DATE":"2021-05-26","RCS_SIZE":"LARGE","REV_AT_EPOCH":"6303","FILE":"3511281","TLE_LINE2":"2 48669  53.0557 357.5653 0001336  92.8317 267.2825 15.06395446 63034","TIME_SYSTEM":"UTC","COUNTRY_CODE":"US","INCLINATION":"53.0557","MEAN_ELEMENT_THEORY":"SGP4","MEAN_ANOMALY":"267.2825","OBJECT_NAME":"STARLINK-2707","GP_ID":"207851879","MEAN_MOTION":"15.06395446","RA_OF_ASC_NODE":"357.5653","APOAPSIS":"548.153","MEAN_MOTION_DOT":"0.00000291","PERIAPSIS":"546.302","ECCENTRICITY":"0.00013360","DECAY_DATE":null,"NORAD_CAT_ID":"48669","TLE_LINE1":"1 48669U 21044AH  22191.81357295  .00000291  00000-0  38408-4 0  9998","SITE":"AFETR","MEAN_MOTION_DDOT":"0.0000000000000","BSTAR":"0.00003840800000","CLASSIFICATION_TYPE":"U","ARG_OF_PERICENTER":"92.8317","EPHEMERIS_TYPE":"0","EPOCH":"2022-07-10T19:31:32.702880"},{"CLASSIFICATION_TYPE":"U","BSTAR":"-0.00023962000000","ARG_OF_PERICENTER":"89.5060","EPHEMERIS_TYPE":"0","EPOCH":"2022-07-10T17:50:42.292320","DECAY_DATE":null,"NORAD_CAT_ID":"48670","TLE_LINE1":"1 48670U 21044AJ  22191.74354505 -.00003847  00000-0 -23962-3 0  9993","SITE":"AFETR","MEAN_MOTION_DDOT":"0.0000000000000","PERIAPSIS":"546.290","ECCENTRICITY":"0.00013990","APOAPSIS":"548.228","MEAN_MOTION_DOT":"-0.00003847","MEAN_MOTION":"15.06385145","RA_OF_ASC_NODE":"357.8797","MEAN_ELEMENT_THEORY":"SGP4","MEAN_ANOMALY":"270.6089","OBJECT_NAME":"STARLINK-2763","GP_ID":"207875161","REV_AT_EPOCH":"6218","FILE":"3511318","TLE_LINE2":"2 48670  53.0551 357.8797 0001399  89.5060 270.6089 15.06385145 62189","TIME_SYSTEM":"UTC","INCLINATION":"53.0551","COUNTRY_CODE":"US","REF_FRAME":"TEME","ELEMENT_SET_NO":"999","SEMIMAJOR_AXIS":"6925.394","PERIOD":"95.593","CENTER_NAME":"EARTH","OBJECT_ID":"2021-044AJ","OBJECT_TYPE":"PAYLOAD","RCS_SIZE":"LARGE","LAUNCH_DATE":"2021-05-26"},{"OBJECT_TYPE":"PAYLOAD","OBJECT_ID":"2021-044AK","RCS_SIZE":"LARGE","LAUNCH_DATE":"2021-05-26","REF_FRAME":"TEME","ELEMENT_SET_NO":"999","SEMIMAJOR_AXIS":"6925.352","PERIOD":"95.592","CENTER_NAME":"EARTH","TIME_SYSTEM":"UTC","INCLINATION":"53.0557","COUNTRY_CODE":"US","REV_AT_EPOCH":"6220","FILE":"3511318","TLE_LINE2":"2 48671  53.0557 357.3196 0001383  81.9059 278.2087 15.06398803 62201","OBJECT_NAME":"STARLINK-2745","GP_ID":"207873916","MEAN_ANOMALY":"278.2087","MEAN_ELEMENT_THEORY":"SGP4","MEAN_MOTION":"15.06398803","RA_OF_ASC_NODE":"357.3196","MEAN_MOTION_DOT":"-0.00000291","APOAPSIS":"548.175","PERIAPSIS":"546.259","ECCENTRICITY":"0.00013830","SITE":"AFETR","MEAN_MOTION_DDOT":"0.0000000000000","DECAY_DATE":null,"NORAD_CAT_ID":"48671","TLE_LINE1":"1 48671U 21044AK  22191.87254334 -.00000291  00000-0 -65976-6 0  9991","EPOCH":"2022-07-10T20:56:27.744576","BSTAR":"-0.00000065976000","CLASSIFICATION_TYPE":"U","ARG_OF_PERICENTER":"81.9059","EPHEMERIS_TYPE":"0"},{"MEAN_MOTION_DDOT":"0.0000000000000","SITE":"AFETR","TLE_LINE1":"1 48672U 21044AL  22191.80251435 -.00001859  00000-0 -10595-3 0  9999","NORAD_CAT_ID":"48672","DECAY_DATE":null,"EPOCH":"2022-07-10T19:15:37.239840","ARG_OF_PERICENTER":"86.5394","EPHEMERIS_TYPE":"0","CLASSIFICATION_TYPE":"U","BSTAR":"-0.00010595000000","MEAN_MOTION_DOT":"-0.00001859","APOAPSIS":"548.183","ECCENTRICITY":"0.00013990","PERIAPSIS":"546.245","GP_ID":"207874166","OBJECT_NAME":"STARLINK-2705","MEAN_ELEMENT_THEORY":"SGP4","MEAN_ANOMALY":"273.5755","RA_OF_ASC_NODE":"357.6440","MEAN_MOTION":"15.06399891","LAUNCH_DATE":"2021-05-26","RCS_SIZE":"LARGE","OBJECT_TYPE":"PAYLOAD","OBJECT_ID":"2021-044AL","CENTER_NAME":"EARTH","PERIOD":"95.592","SEMIMAJOR_AXIS":"6925.349","ELEMENT_SET_NO":"999","REF_FRAME":"TEME","INCLINATION":"53.0560","COUNTRY_CODE":"US","TIME_SYSTEM":"UTC","TLE_LINE2":"2 48672  53.0560 357.6440 0001399  86.5394 273.5755 15.06399891 62197","FILE":"3511318","REV_AT_EPOCH":"6219"},{"NORAD_CAT_ID":"48673","TLE_LINE1":"1 48673U 21044AM  22191.86518413  .00000599  00000-0  59099-4 0  9999","DECAY_DATE":null,"MEAN_MOTION_DDOT":"0.0000000000000","SITE":"AFETR","ARG_OF_PERICENTER":"83.4375","EPHEMERIS_TYPE":"0","CLASSIFICATION_TYPE":"U","BSTAR":"0.00005909900000","EPOCH":"2022-07-10T20:45:51.908832","APOAPSIS":"548.246","MEAN_MOTION_DOT":"0.00000599","ECCENTRICITY":"0.00014270","PERIAPSIS":"546.270","MEAN_ANOMALY":"276.6777","MEAN_ELEMENT_THEORY":"SGP4","GP_ID":"207874917","OBJECT_NAME":"STARLINK-2711","MEAN_MOTION":"15.06385566","RA_OF_ASC_NODE":"357.3537","ELEMENT_SET_NO":"999","CENTER_NAME":"EARTH","PERIOD":"95.593","SEMIMAJOR_AXIS":"6925.393","REF_FRAME":"TEME","LAUNCH_DATE":"2021-05-26","RCS_SIZE":"LARGE","OBJECT_ID":"2021-044AM","OBJECT_TYPE":"PAYLOAD","TLE_LINE2":"2 48673  53.0558 357.3537 0001427  83.4375 276.6777 15.06385566 62200","REV_AT_EPOCH":"6220","FILE":"3511318","TIME_SYSTEM":"UTC","INCLINATION":"53.0558","COUNTRY_CODE":"US"},{"SITE":"AFETR","MEAN_MOTION_DDOT":"0.0000000000000","NORAD_CAT_ID":"48674","TLE_LINE1":"1 48674U 21044AN  22191.86054479 -.00001597  00000-0 -88296-4 0  9999","DECAY_DATE":null,"EPOCH":"2022-07-10T20:39:11.069856","ARG_OF_PERICENTER":"86.1873","EPHEMERIS_TYPE":"0","CLASSIFICATION_TYPE":"U","BSTAR":"-0.00008829600000","MEAN_MOTION_DOT":"-0.00001597","APOAPSIS":"548.162","ECCENTRICITY":"0.00014010","PERIAPSIS":"546.222","GP_ID":"207874662","OBJECT_NAME":"STARLINK-2712","MEAN_ELEMENT_THEORY":"SGP4","MEAN_ANOMALY":"273.9277","MEAN_MOTION":"15.06407080","RA_OF_ASC_NODE":"357.3669","LAUNCH_DATE":"2021-05-26","RCS_SIZE":"LARGE","OBJECT_TYPE":"PAYLOAD","OBJECT_ID":"2021-044AN","ELEMENT_SET_NO":"999","PERIOD":"95.592","SEMIMAJOR_AXIS":"6925.327","CENTER_NAME":"EARTH","REF_FRAME":"TEME","TIME_SYSTEM":"UTC","INCLINATION":"53.0572","COUNTRY_CODE":"US","TLE_LINE2":"2 48674  53.0572 357.3669 0001401  86.1873 273.9277 15.06407080 62209","REV_AT_EPOCH":"6220","FILE":"3511318"},{"NORAD_CAT_ID":"48675","TLE_LINE1":"1 48675U 21044AP  22191.72512352 -.00003659  00000-0 -22691-3 0  9991","DECAY_DATE":null,"SITE":"AFETR","MEAN_MOTION_DDOT":"0.0000000000000","ARG_OF_PERICENTER":"88.1630","EPHEMERIS_TYPE":"0","BSTAR":"-0.00022691000000","CLASSIFICATION_TYPE":"U","EPOCH":"2022-07-10T17:24:10.672128","APOAPSIS":"548.213","MEAN_MOTION_DOT":"-0.00003659","ECCENTRICITY":"0.00014020","PERIAPSIS":"546.271","MEAN_ELEMENT_THEORY":"SGP4","MEAN_ANOMALY":"271.9520","GP_ID":"207873416","OBJECT_NAME":"STARLINK-2737","MEAN_MOTION":"15.06390673","RA_OF_ASC_NODE":"357.9859","ELEMENT_SET_NO":"999","SEMIMAJOR_AXIS":"6925.377","PERIOD":"95.593","CENTER_NAME":"EARTH","REF_FRAME":"TEME","RCS_SIZE":"LARGE","LAUNCH_DATE":"2021-05-26","OBJECT_ID":"2021-044AP","OBJECT_TYPE":"PAYLOAD","TLE_LINE2":"2 48675  53.0563 357.9859 0001402  88.1630 271.9520 15.06390673 63020","REV_AT_EPOCH":"6302","FILE":"3511318","TIME_SYSTEM":"UTC","COUNTRY_CODE":"US","INCLINATION":"53.0563"},{"TLE_LINE1":"1 48676U 21044AQ  22191.78775954 -.00000409  00000-0 -85773-5 0  9999","NORAD_CAT_ID":"48676","DECAY_DATE":null,"MEAN_MOTION_DDOT":"0.0000000000000","SITE":"AFETR","EPHEMERIS_TYPE":"0","ARG_OF_PERICENTER":"71.4502","BSTAR":"-0.00000857730000","CLASSIFICATION_TYPE":"U","EPOCH":"2022-07-10T18:54:22.424256","APOAPSIS":"548.118","MEAN_MOTION_DOT":"-0.00000409","ECCENTRICITY":"0.00013520","PERIAPSIS":"546.245","MEAN_ANOMALY":"288.6634","MEAN_ELEMENT_THEORY":"SGP4","GP_ID":"207873666","OBJECT_NAME":"STARLINK-2746","RA_OF_ASC_NODE":"357.6986","MEAN_MOTION":"15.06410522","PERIOD":"95.591","SEMIMAJOR_AXIS":"6925.316","CENTER_NAME":"EARTH","ELEMENT_SET_NO":"999","REF_FRAME":"TEME","LAUNCH_DATE":"2021-05-26","RCS_SIZE":"LARGE","OBJECT_TYPE":"PAYLOAD","OBJECT_ID":"2021-044AQ","TLE_LINE2":"2 48676  53.0562 357.6986 0001352  71.4502 288.6634 15.06410522 62199","FILE":"3511318","REV_AT_EPOCH":"6219","INCLINATION":"53.0562","COUNTRY_CODE":"US","TIME_SYSTEM":"UTC"}];
